     2.10           G: GLONASS NAV DATA                     RINEX VERSION / TYPE
teqc  2015Jun23                         20211029 01:27:55UTCPGM / RUN BY / DATE
Linux 2.4.21-27.ELsmp|Opteron|gcc -static|Linux x86_64|=+   COMMENT
  2021    10     5   -1.396983861923D-09                    CORR TO SYSTEM TIME
                                                            END OF HEADER
 1 21 10  6  2 45  0.0 8.628610521555D-05 0.000000000000D+00 9.000000000000D+03
    1.246874511719D+04 6.980810165405D-01-1.862645149231D-09 0.000000000000D+00
    1.610626171875D+04 1.984663963318D+00-9.313225746155D-10 1.000000000000D+00
   -1.535535205078D+04 2.650399208069D+00 1.862645149231D-09 0.000000000000D+00
 8 21 10  6  2 45  0.0-6.132852286100D-05-0.000000000000D+00 9.000000000000D+03
    7.083731933594D+03 1.950931549072D-01-4.656612873077D-09 0.000000000000D+00
    2.450013378906D+04 8.673954010010D-02 0.000000000000D+00 6.000000000000D+00
   -9.350703125000D+02 3.565822601318D+00-0.000000000000D+00 0.000000000000D+00
10 21 10  6  2 45  0.0-7.568020373583D-05-0.000000000000D+00 9.000000000000D+03
   -8.965043945312D+03-2.962525367737D+00-1.862645149231D-09 0.000000000000D+00
    8.727112304688D+03-6.961688995361D-01 2.793967723846D-09-7.000000000000D+00
   -2.221829296875D+04 9.284324645996D-01 2.793967723846D-09 0.000000000000D+00
 7 21 10  6  2 45  0.0-4.080869257450D-05 0.000000000000D+00 9.000000000000D+03
   -1.625418457031D+03-3.993587493896D-01-3.725290298462D-09 0.000000000000D+00
    2.080621386719D+04-1.973586082458D+00 1.862645149231D-09 5.000000000000D+00
    1.473254882812D+04 2.744102478027D+00-1.862645149231D-09 0.000000000000D+00
20 21 10  6  2 45  0.0-5.705188959837D-05-0.000000000000D+00 9.000000000000D+03
   -1.971955175781D+04 1.300431251526D+00-3.725290298462D-09 0.000000000000D+00
    1.149121875000D+04-9.024009704590D-01 4.656612873077D-09 2.000000000000D+00
   -1.141546142578D+04-3.149945259094D+00 9.313225746155D-10 0.000000000000D+00
21 21 10  6  2 45  0.0-2.445830032229D-04-2.728484105319D-12 9.000000000000D+03
   -1.449330761719D+04-6.220932006836D-01-4.656612873077D-09 0.000000000000D+00
    1.938962109375D+04 9.289007186890D-01 4.656612873077D-09 4.000000000000D+00
    7.981608886719D+03-3.389424324036D+00-9.313225746155D-10 0.000000000000D+00
22 21 10  6  2 45  0.0-1.372341066599D-04-1.818989403546D-12 9.450000000000D+03
   -2.291417480469D+03-1.930781364441D+00-2.793967723846D-09 0.000000000000D+00
    1.499627441406D+04 2.052226066589D+00 9.313225746155D-10-3.000000000000D+00
    2.051958789062D+04-1.706523895264D+00-2.793967723846D-09 0.000000000000D+00
 1 21 10  6  3 15  0.0 8.628703653812D-05 0.000000000000D+00 1.080000000000D+04
    1.374395996094D+04 6.773595809937D-01-3.725290298462D-09 0.000000000000D+00
    1.898990966797D+04 1.204043388367D+00-0.000000000000D+00 1.000000000000D+00
   -1.005259277344D+04 3.203320503235D+00 9.313225746155D-10 0.000000000000D+00
 8 21 10  6  3 15  0.0-6.132852286100D-05 0.000000000000D+00 1.080000000000D+04
    7.171598144531D+03-1.342811584473D-01-4.656612873077D-09 0.000000000000D+00
    2.389367333984D+04-7.424869537354D-01 9.313225746155D-10 6.000000000000D+00
    5.436734375000D+03 3.468102455139D+00-9.313225746155D-10 0.000000000000D+00
10 21 10  6  3 15  0.0-7.568113505840D-05-0.000000000000D+00 1.080000000000D+04
   -1.409908789062D+04-2.692287445068D+00-9.313225746155D-10 0.000000000000D+00
    7.904260253906D+03-2.254095077515D-01 3.725290298462D-09-7.000000000000D+00
   -1.970867382812D+04 1.842084884644D+00 2.793967723846D-09 0.000000000000D+00
 7 21 10  6  3 15  0.0-4.080682992935D-05 0.000000000000D+00 1.080000000000D+04
   -2.793780273438D+03-9.125280380249D-01-2.793967723846D-09 0.000000000000D+00
    1.679836621094D+04-2.434647560120D+00 1.862645149231D-09 5.000000000000D+00
    1.904137109375D+04 2.012535095215D+00-2.793967723846D-09 0.000000000000D+00
20 21 10  6  3 15  0.0-5.705188959837D-05-0.000000000000D+00 1.080000000000D+04
   -1.707878466797D+04 1.586649894714D+00-1.862645149231D-09 0.000000000000D+00
    9.203704589844D+03-1.639030456543D+00 4.656612873077D-09 2.000000000000D+00
   -1.657133984375D+04-2.541604995728D+00 1.862645149231D-09 0.000000000000D+00
21 21 10  6  3 15  0.0-2.445885911584D-04-2.728484105319D-12 1.080000000000D+04
   -1.498853417969D+04 4.809856414795D-02-3.725290298462D-09 0.000000000000D+00
    2.054953857422D+04 3.239154815674D-01 5.587935447693D-09 4.000000000000D+00
    1.650362792969D+03-3.599509239197D+00-0.000000000000D+00 0.000000000000D+00
22 21 10  6  3 15  0.0-1.372378319502D-04-1.818989403546D-12 1.080000000000D+04
   -5.186059570312D+03-1.275549888611D+00-3.725290298462D-09 0.000000000000D+00
    1.860600488281D+04 1.909750938416D+00 2.793967723846D-09-3.000000000000D+00
    1.669561132812D+04-2.514624595642D+00-2.793967723846D-09 0.000000000000D+00
 1 21 10  6  3 45  0.0 8.628796786070D-05 0.000000000000D+00 1.260000000000D+04
    1.475516259766D+04 4.047031402588D-01-3.725290298462D-09 0.000000000000D+00
    2.042005029297D+04 3.888845443726D-01 9.313225746155D-10 1.000000000000D+00
   -3.972356933594D+03 3.508622169495D+00 0.000000000000D+00 0.000000000000D+00
 8 21 10  6  3 45  0.0-6.132852286100D-05 0.000000000000D+00 1.260000000000D+04
    6.485857910156D+03-6.532077789307D-01-3.725290298462D-09 0.000000000000D+00
    2.192263574219D+04-1.413546562195D+00 1.862645149231D-09 6.000000000000D+00
    1.138939550781D+04 3.103231430054D+00-1.862645149231D-09 0.000000000000D+00
21 21 10  6  3 45  0.0-2.445941790938D-04-2.728484105319D-12 1.260000000000D+04
   -1.443208056641D+04 5.329256057739D-01-2.793967723846D-09 0.000000000000D+00
    2.045173681641D+04-4.533023834229D-01 6.519258022308D-09 4.000000000000D+00
   -4.808796875000D+03-3.530615806580D+00 0.000000000000D+00 0.000000000000D+00
 7 21 10  6  3 45  0.0-4.080589860678D-05 0.000000000000D+00 1.260000000000D+04
   -4.928066894531D+03-1.454646110535D+00-1.862645149231D-09 0.000000000000D+00
    1.221399023438D+04-2.609714508057D+00 2.793967723846D-09 5.000000000000D+00
    2.188442138672D+04 1.125942230225D+00-2.793967723846D-09 0.000000000000D+00
22 21 10  6  3 45  0.0-1.372490078211D-04-9.094947017729D-13 1.260000000000D+04
   -6.882762695312D+03-6.191024780273D-01-3.725290298462D-09 0.000000000000D+00
    2.169789013672D+04 1.479722023010D+00 4.656612873077D-09-3.000000000000D+00
    1.158411816406D+04-3.127938270569D+00-1.862645149231D-09 0.000000000000D+00
10 21 10  6  3 45  0.0-7.568206638098D-05-0.000000000000D+00 1.266000000000D+04
   -1.849072021484D+04-2.145891189575D+00-0.000000000000D+00 0.000000000000D+00
    7.858559082031D+03 1.508455276489D-01 4.656612873077D-09-7.000000000000D+00
   -1.567206005859D+04 2.613977432251D+00 1.862645149231D-09 0.000000000000D+00
 1 21 10  6  4 15  0.0 8.628889918327D-05 0.000000000000D+00 1.440000000000D+04
    1.506229394531D+04-9.752845764160D-02-3.725290298462D-09 0.000000000000D+00
    2.043732177734D+04-3.477764129639D-01 1.862645149231D-09 1.000000000000D+00
    2.415179687500D+03 3.542523384094D+00-0.000000000000D+00 0.000000000000D+00
 8 21 10  6  4 15  0.0-6.132852286100D-05 0.000000000000D+00 1.440000000000D+04
    4.755910644531D+03-1.278285980225D+00-2.793967723846D-09 0.000000000000D+00
    1.894808837891D+04-1.847307205200D+00 2.793967723846D-09 6.000000000000D+00
    1.646489453125D+04 2.499844551086D+00-2.793967723846D-09 0.000000000000D+00
21 21 10  6  4 15  0.0-2.445997670293D-04-2.728484105319D-12 1.440000000000D+04
   -1.321891308594D+04 7.710828781128D-01-9.313225746155D-10 0.000000000000D+00
    1.887671826172D+04-1.298250198364D+00 5.587935447693D-09 4.000000000000D+00
   -1.089526904297D+04-3.188132286072D+00 9.313225746155D-10 0.000000000000D+00
22 21 10  6  4 15  0.0-1.372518017888D-04-9.094947017729D-13 1.440000000000D+04
   -7.480766113281D+03-7.177448272705D-02-2.793967723846D-09 0.000000000000D+00
    2.378381542969D+04 8.024301528931D-01 6.519258022308D-09-3.000000000000D+00
    5.580267089844D+03-3.499821662903D+00-9.313225746155D-10 0.000000000000D+00
10 21 10  6  4 15  0.0-7.568392902613D-05-0.000000000000D+00 1.443000000000D+04
   -2.169957470703D+04-1.392694473267D+00 0.000000000000D+00 0.000000000000D+00
    8.337974609375D+03 3.460235595703D-01 4.656612873077D-09-7.000000000000D+00
   -1.041993408203D+04 3.183763504028D+00 9.313225746155D-10 0.000000000000D+00
23 21 10  6  4 15  0.0-1.559406518936D-05-9.094947017729D-13 1.512000000000D+04
    5.102079589844D+03-1.079002380371D+00-1.862645149231D-09 0.000000000000D+00
    1.256199560547D+04 2.762610435486D+00 1.862645149231D-09 3.000000000000D+00
    2.159633886719D+04-1.352335929871D+00-2.793967723846D-09 0.000000000000D+00
 1 21 10  6  4 45  0.0 8.628983050585D-05 0.000000000000D+00 1.620000000000D+04
    1.430410351562D+04-7.652816772461D-01-3.725290298462D-09 0.000000000000D+00
    1.927396386719D+04-9.090013504028D-01 2.793967723846D-09 1.000000000000D+00
    8.615817382812D+03 3.302293777466D+00-9.313225746155D-10 0.000000000000D+00
22 21 10  6  4 45  0.0-1.372545957565D-04-9.094947017729D-13 1.620000000000D+04
   -7.259900390625D+03 2.788972854614D-01-9.313225746155D-10 0.000000000000D+00
    2.448634912109D+04-4.105854034424D-02 7.450580596924D-09-3.000000000000D+00
   -8.531054687500D+02-3.602174758911D+00-0.000000000000D+00 0.000000000000D+00
 8 21 10  6  4 45  0.0-6.132759153843D-05 0.000000000000D+00 1.620000000000D+04
    1.883474121094D+03-1.904133796692D+00-9.313225746155D-10 0.000000000000D+00
    1.543948242188D+04-2.004013061523D+00 2.793967723846D-09 6.000000000000D+00
    2.027342529297D+04 1.704591751099D+00-2.793967723846D-09 0.000000000000D+00
10 21 10  6  4 45  0.0-7.568486034870D-05-0.000000000000D+00 1.620000000000D+04
   -2.344046484375D+04-5.334215164185D-01 1.862645149231D-09 0.000000000000D+00
    8.962849121094D+03 3.070030212402D-01 3.725290298462D-09-7.000000000000D+00
   -4.359002929688D+03 3.506712913513D+00 0.000000000000D+00 0.000000000000D+00
